FLOCK 3P-47             
1 42032U 17008CN  17243.91058475  .00001914  00000-0  84719-4 0  9991
2 42032  97.4896 305.0948 0006757 316.6246  43.4458 15.22874896 29885
FLOCK 3P-44             
1 42033U 17008CP  17244.43022685  .00002572  00000-0  11279-3 0  9995
2 42033  97.4901 305.6311 0006638 316.4208  43.6504 15.22889383 28719
FLOCK 3P-64             
1 42034U 17008CQ  17243.90361306  .00003891  00000-0  16901-3 0  9995
2 42034  97.4896 305.0985 0006634 319.1010  40.9728 15.22891315 30057
FLOCK 3P-63             
1 42035U 17008CR  17243.90281272  .00004490  00000-0  19442-3 0  9998
2 42035  97.4895 305.0965 0006640 319.0012  41.0724 15.22912908 28027
FLOCK 3P-62             
1 42036U 17008CS  17243.89213854  .00004511  00000-0  19481-3 0  9995
2 42036  97.4897 305.1145 0006724 320.4453  39.6292 15.23002873 29227
FLOCK 3P-38             
1 42037U 17008CT  17243.90082946  .00001769  00000-0  78528-4 0  9994
2 42037  97.4895 305.0998 0006391 320.3556  39.7212 15.22892505 30003
FLOCK 3P-39             
1 42038U 17008CU  17243.89867540  .00004781  00000-0  20684-3 0  9990
2 42038  97.4892 305.0946 0006584 319.6831  40.3916 15.22908595 29953
FLOCK 3P-15             
1 42039U 17008CV  17244.49404288  .00001889  00000-0  83606-4 0  9994
2 42039  97.4894 305.6870 0006445 317.2318  42.8416 15.22897228 29321
FLOCK 3P-13             
1 42040U 17008CW  17243.89706565  .00002622  00000-0  11481-3 0  9999
2 42040  97.4897 305.1083 0006440 320.1209  39.9554 15.22914206 29229
FLOCK 3P-55             
1 42041U 17008CX  17244.20501479  .00001979  00000-0  87133-4 0  9995
2 42041  97.4895 305.4600 0006313 324.9640  35.1180 15.23020134 30118
FLOCK 3P-56             
1 42042U 17008CY  17243.93915909  .00004537  00000-0  19472-3 0  9995
2 42042  97.4894 305.1932 0006211 324.6487  35.4337 15.23207040 29866
FLOCK 3P-81             
1 42043U 17008CZ  17243.92338510  .00006471  00000-0  27898-3 0  9992
2 42043  97.4921 305.1433 0006705 298.5001  61.5560 15.22886405 29240
FLOCK 3P-87             
1 42044U 17008DA  17243.86617163  .00004641  00000-0  20101-3 0  9997
2 42044  97.4917 305.0571 0006836 295.0661  64.9866 15.22884829 29386
FLOCK 3P-29             
1 42045U 17008DB  17244.45928026  .00003496  00000-0  15222-3 0  9992
2 42045  97.4901 305.5948 0006474 288.7028  71.3505 15.22882141 29328
FLOCK 3P-82             
1 42046U 17008DC  17244.19805539  .00004194  00000-0  18206-3 0  9998
2 42046  97.4919 305.3853 0006902 294.2274  65.8241 15.22865416 29334
FLOCK 3P-78             
1 42047U 17008DD  17244.52240622  .00002387  00000-0  10493-3 0  9994
2 42047  97.4920 305.7203 0006735 291.6871  68.3648 15.22879069 29314
FLOCK 3P-74             
1 42048U 17008DE  17243.93913398  .00005187  00000-0  22464-3 0  9998
2 42048  97.4923 305.1264 0007050 295.2500  64.8005 15.22829443 29228
FLOCK 3P-31             
1 42049U 17008DF  17243.87396273  .00002770  00000-0  12149-3 0  9993
2 42049  97.4900 304.9995 0006584 292.7939  67.2601 15.22808346 28677
FLOCK 3P-83             
1 42050U 17008DG  17243.94051736  .00006340  00000-0  27400-3 0  9998
2 42050  97.4920 305.1160 0006999 296.2817  63.7700 15.22809415 29953
FLOCK 3P-72             
1 42051U 17008DH  17243.85630517  .00003461  00000-0  15069-3 0  9998
2 42051  97.4924 305.0864 0006511 294.7914  65.2645 15.22893047 27530
LEMUR-2-REDFERN-GOES    
1 42059U 98067LA  17244.16176804  .00029493  00000-0  36178-3 0  9996
2 42059  51.6394  15.0160 0007277 222.7087 137.3341 15.60044492 27864
LEMUR-2-TRUTNA          
1 42067U 98067LC  17243.93072794  .00059598  00000-0  62539-3 0  9991
2 42067  51.6389  14.2169 0006102 224.7499 135.3004 15.63763117 27681
LEMUR-2-AUSTINTACIOUS   
1 42068U 98067LD  17243.74820607  .00036387  00000-0  43172-3 0  9998
2 42068  51.6396  16.7550 0007050 218.7646 141.2842 15.60809979 27737
LEMUR-2-TRUTNAHD        
1 42069U 98067LE  17243.76322273  .00032350  00000-0  39036-3 0  9997
2 42069  51.6404  16.8663 0006467 219.5334 140.5188 15.60431877 27786
HAVELSAT                
1 42700U 98067LH  17243.95867298  .00024190  00000-0  32633-3 0  9990
2 42700  51.6401  18.9083 0006131 247.8950 112.1391 15.57643545 16748
SOMP 2                  
1 42701U 98067LJ  17243.90319791  .00021849  00000-0  29869-3 0  9991
2 42701  51.6405  19.2918 0006096 247.6483 112.3864 15.57352711 16720
COLUMBIA                
1 42702U 98067LK  17244.01296008  .00057605  00000-0  69557-3 0  9997
2 42702  51.6396  17.7713 0006402 249.4663 110.5643 15.60150090 16687
SGSAT                   
1 42703U 98067LL  17243.78803858  .00046487  00000-0  58524-3 0  9996
2 42703  51.6387  19.2684 0002277 208.6265 151.4603 15.59162595 16639
CXBN-2                  
1 42704U 98067LM  17243.91041337  .00024252  00000-0  33126-3 0  9995
2 42704  51.6401  19.3383 0002046 195.6476 164.4453 15.57322370 16653
ICECUBE                 
1 42705U 98067LN  17243.77042254  .00033631  00000-0  44807-3 0  9998
2 42705  51.6414  19.9112 0001871 193.0839 167.0105 15.57808054 16699
PHOENIX                 
1 42706U 98067LP  17243.77124552  .00024278  00000-0  33013-3 0  9995
2 42706  51.6407  19.9127 0001504 222.6572 137.4304 15.57443224 16623
X-CUBESAT               
1 42707U 98067LQ  17243.77168621  .00024322  00000-0  33000-3 0  9997
2 42707  51.6400  19.9117 0001502 224.5753 135.5119 15.57500979 16619
QBEE50-LTU-OC           
1 42708U 98067LR  17243.96683648  .00024735  00000-0  33603-3 0  9997
2 42708  51.6399  18.9654 0001542 226.3134 133.7730 15.57456440 16600
ALTAIR PATHFINDER       
1 42711U 98067LS  17244.01283645  .00017199  00000-0  24520-3 0  9995
2 42711  51.6402  19.2688 0004310 181.8605 178.2371 15.56404196 16317
SHARC                   
1 42712U 98067LT  17243.75521660  .00016893  00000-0  24238-3 0  9994
2 42712  51.6408  20.5534 0002391 180.2462 179.8529 15.56249893 16515
ZA-AEROSAT              
1 42713U 98067LU  17244.18088514  .00019986  00000-0  27821-3 0  9996
2 42713  51.6404  18.1449 0002223 178.2471 181.8529 15.56941692 16341
LINK                    
1 42714U 98067LV  17243.91066475  .00034041  00000-0  45631-3 0  9997
2 42714  51.6395  19.3371 0002144 191.2563 168.8381 15.57637925 16418
CSUNSAT 1               
1 42715U 98067LW  17243.93037620  .00022553  00000-0  31308-3 0  9991
2 42715  51.6398  19.4677 0004410 172.7945 187.3111 15.56926550 16307
UPSAT                   
1 42716U 98067LX  17243.96022415  .00029164  00000-0  39010-3 0  9994
2 42716  51.6402  18.9215 0004542 252.4084 107.6412 15.57769532 16442
SPACECUBE               
1 42717U 98067LY  17243.97548368  .00024440  00000-0  33386-3 0  9998
2 42717  51.6401  19.0220 0004486 250.6441 109.4066 15.57308984 15684
HOOPOE                  
1 42718U 98067LZ  17243.96802889  .00028662  00000-0  38666-3 0  9995
2 42718  51.6403  18.9748 0004545 250.6854 109.3647 15.57550811 15686
CHALLENGER              
1 42721U 98067MA  17243.77889557  .00035669  00000-0  47194-3 0  9996
2 42721  51.6397  19.9562 0007498 230.6815 129.3513 15.57937164 15350
NJUST-1                 
1 42722U 98067MB  17243.75215474  .00019536  00000-0  27479-3 0  9995
2 42722  51.6402  20.5284 0007369 228.6581 131.3777 15.56653663 15343
UNSW-ECO                
1 42723U 98067MC  17243.92869102  .00029729  00000-0  40494-3 0  9995
2 42723  51.6401  19.4601 0007294 230.0635 129.9716 15.57255038 15359
DUTHSAT                 
1 42724U 98067MD  17244.17209520  .00033987  00000-0  45261-3 0  9994
2 42724  51.6403  18.0840 0006535 235.1004 124.9375 15.57795234 15314
LILACSAT-1              
1 42725U 98067ME  17244.01054658  .00022404  00000-0  31290-3 0  9997
2 42725  51.6404  19.2558 0006411 233.3997 126.6406 15.56756873 15284
NSIGHT-1                
1 42726U 98067MF  17243.90468198  .00012118  00000-0  17771-3 0  9992
2 42726  51.6408  20.0500 0006255 232.5534 127.4889 15.55960166 15274
SNUSAT-1                
1 42727U 98067MG  17243.55977932  .00021596  00000-0  30111-3 0  9998
2 42727  51.6397  21.4891 0007739 191.8978 168.1832 15.56816809 15182
QBITO                   
1 42728U 98067MH  17244.44611257  .00025531  00000-0  35093-3 0  9990
2 42728  51.6408  16.9180 0003667 243.5799 116.4817 15.57117900 15162
AALTO-2                 
1 42729U 98067MJ  17243.80413566  .00024518  00000-0  33771-3 0  9998
2 42729  51.6403  20.1279 0003688 239.1504 120.9125 15.57086766 15079
SUSAT                   
1 42730U 98067MK  17244.00038759  .00024867  00000-0  34398-3 0  9993
2 42730  51.6403  19.1872 0003703 238.1958 121.8674 15.56962948 15093
I-INSPIRE II            
1 42731U 98067ML  17243.41258337  .00019768  00000-0  27077-3 0  9994
2 42731  51.6395  22.0053 0007094 179.3765 180.7237 15.57364541 15058
POLYITAN-2-SAU          
1 42732U 98067MM  17244.18687648  .00025661  00000-0  35170-3 0  9993
2 42732  51.6393  18.1754 0007141 181.2428 178.8547 15.57174540 15175
SNUSAT-1B               
1 42733U 98067MN  17243.80860984  .00023911  00000-0  33059-3 0  9998
2 42733  51.6398  20.1500 0007091 180.6959 179.4024 15.56982453 15119
EXALTA-1                
1 42734U 98067MP  17242.45000738  .00026260  00000-0  35802-3 0  9990
2 42734  51.6397  26.8278 0008898 199.3926 160.6729 15.57286073 14851
AOXIANG-1               
1 42735U 98067MQ  17243.74991747  .00019535  00000-0  27411-3 0  9997
2 42735  51.6402  20.5128 0007989 225.2852 134.7490 15.56715072 16473
BEEAGLESAT              
1 42736U 98067MR  17243.81245546  .00021677  00000-0  30206-3 0  9991
2 42736  51.6402  20.1804 0007901 225.0708 134.9643 15.56829302 15173
ATLANTIS                
1 42737U 98067MS  17243.94147377  .00053444  00000-0  67093-3 0  9990
2 42737  51.6384  18.7880 0007852 228.7195 131.3122 15.59145860 15092
LEMUR-2-ANGELA          
1 42752U 17019B   17243.81811313  .00003319  00000-0  13375-3 0  9999
2 42752  51.6429  37.9544 0010334 251.9547 108.0307 15.27655692 12858
